[{"OBJECT_NAME":"SNIPE 4","OBJECT_ID":"2023-072B","EPOCH":"2026-03-09T22:51:01.035648","MEAN_MOTION":15.38255292,"ECCENTRICITY":0.00053591,"INCLINATION":97.5358,"RA_OF_ASC_NODE":272.044,"ARG_OF_PERICENTER":330.1264,"MEAN_ANOMALY":29.9674,"EPHEMERIS_TYPE":0,"CLASSIFICATION_TYPE":"U","NORAD_CAT_ID":56744,"ELEMENT_SET_NO":999,"REV_AT_EPOCH":15483,"BSTAR":0.00061038687,"MEAN_MOTION_DOT":0.00022972,"MEAN_MOTION_DDOT":0},{"OBJECT_NAME":"OBJECT L","OBJECT_ID":"2025-155L","EPOCH":"2026-03-09T22:37:59.438784","MEAN_MOTION":15.35424042,"ECCENTRICITY":0.00089978,"INCLINATION":97.4398,"RA_OF_ASC_NODE":38.3429,"ARG_OF_PERICENTER":138.4507,"MEAN_ANOMALY":221.7422,"EPHEMERIS_TYPE":0,"CLASSIFICATION_TYPE":"U","NORAD_CAT_ID":64886,"ELEMENT_SET_NO":999,"REV_AT_EPOCH":6567,"BSTAR":0.0010049858,"MEAN_MOTION_DOT":0.00034663,"MEAN_MOTION_DDOT":0}]
